{"fetched_at":"2026-07-06T18:35:12.836Z","source":"https://celestrak.org/NORAD/elements/gp.php?GROUP=kuiper&FORMAT=JSON","constellation":"kuiper","records":[{"OBJECT_NAME":"KUIPER-00408","OBJECT_ID":"2026-098F","EPOCH":"2026-07-05T22:44:53.312928","CLASSIFICATION_TYPE":"U","MEAN_MOTION":15.26717345,"ECCENTRICITY":0.00125535,"INCLINATION":51.8793,"RA_OF_ASC_NODE":339.9224,"ARG_OF_PERICENTER":224.7296,"MEAN_ANOMALY":135.2675,"EPHEMERIS_TYPE":0,"NORAD_CAT_ID":68924,"ELEMENT_SET_NO":999,"REV_AT_EPOCH":1019,"BSTAR":0.00061018877,"MEAN_MOTION_DOT":0.00015977,"MEAN_MOTION_DDOT":0},{"OBJECT_NAME":"KUIPER-00409","OBJECT_ID":"2026-098G","EPOCH":"2026-07-06T06:00:04.000320","CLASSIFICATION_TYPE":"U","MEAN_MOTION":15.20759242,"ECCENTRICITY":0.00059467,"INCLINATION":51.8823,"RA_OF_ASC_NODE":336.942,"ARG_OF_PERICENTER":238.9481,"MEAN_ANOMALY":358.91,"EPHEMERIS_TYPE":0,"NORAD_CAT_ID":68925,"ELEMENT_SET_NO":999,"REV_AT_EPOCH":557,"BSTAR":-0.090569269,"MEAN_MOTION_DOT":-0.01841855,"MEAN_MOTION_DDOT":0},{"OBJECT_NAME":"KUIPER-00410","OBJECT_ID":"2026-098H","EPOCH":"2026-07-06T04:55:46.127136","CLASSIFICATION_TYPE":"U","MEAN_MOTION":15.26628891,"ECCENTRICITY":0.00134544,"INCLINATION":51.8784,"RA_OF_ASC_NODE":338.6374,"ARG_OF_PERICENTER":222.1807,"MEAN_ANOMALY":137.8141,"EPHEMERIS_TYPE":0,"NORAD_CAT_ID":68926,"ELEMENT_SET_NO":999,"REV_AT_EPOCH":1023,"BSTAR":0.00045006734,"MEAN_MOTION_DOT":0.00011656,"MEAN_MOTION_DDOT":0},{"OBJECT_NAME":"KUIPER-00412","OBJECT_ID":"2026-098J","EPOCH":"2026-07-05T21:50:44.329920","CLASSIFICATION_TYPE":"U","MEAN_MOTION":15.37508919,"ECCENTRICITY":0.00036947,"INCLINATION":51.8796,"RA_OF_ASC_NODE":336.7708,"ARG_OF_PERICENTER":278.4385,"MEAN_ANOMALY":81.6183,"EPHEMERIS_TYPE":0,"NORAD_CAT_ID":68927,"ELEMENT_SET_NO":999,"REV_AT_EPOCH":1023,"BSTAR":0.0011188414,"MEAN_MOTION_DOT":0.00041656,"MEAN_MOTION_DDOT":0},{"OBJECT_NAME":"KUIPER-00413","OBJECT_ID":"2026-098K","EPOCH":"2026-07-05T19:52:34.404672","CLASSIFICATION_TYPE":"U","MEAN_MOTION":15.20121373,"ECCENTRICITY":0.00228904,"INCLINATION":51.88,"RA_OF_ASC_NODE":341.2939,"ARG_OF_PERICENTER":229.884,"MEAN_ANOMALY":130.0133,"EPHEMERIS_TYPE":0,"NORAD_CAT_ID":68928,"ELEMENT_SET_NO":999,"REV_AT_EPOCH":1016,"BSTAR":0.00074657467,"MEAN_MOTION_DOT":0.00016169,"MEAN_MOTION_DDOT":0},{"OBJECT_NAME":"KUIPER-00414","OBJECT_ID":"2026-098L","EPOCH":"2026-07-05T19:53:43.591200","CLASSIFICATION_TYPE":"U","MEAN_MOTION":14.79938792,"ECCENTRICITY":0.00012712,"INCLINATION":51.8978,"RA_OF_ASC_NODE":348.3268,"ARG_OF_PERICENTER":220.7264,"MEAN_ANOMALY":139.3604,"EPHEMERIS_TYPE":0,"NORAD_CAT_ID":68929,"ELEMENT_SET_NO":999,"REV_AT_EPOCH":1006,"BSTAR":0.00036606826,"MEAN_MOTION_DOT":0.00002571,"MEAN_MOTION_DDOT":0},{"OBJECT_NAME":"KUIPER-00415","OBJECT_ID":"2026-098M","EPOCH":"2026-07-05T19:53:23.416800","CLASSIFICATION_TYPE":"U","MEAN_MOTION":15.30343427,"ECCENTRICITY":0.00093154,"INCLINATION":51.881,"RA_OF_ASC_NODE":339.1779,"ARG_OF_PERICENTER":211.8871,"MEAN_ANOMALY":148.155,"EPHEMERIS_TYPE":0,"NORAD_CAT_ID":68930,"ELEMENT_SET_NO":999,"REV_AT_EPOCH":1019,"BSTAR":0.00073397841,"MEAN_MOTION_DOT":0.0002158,"MEAN_MOTION_DDOT":0},{"OBJECT_NAME":"KUIPER-00416","OBJECT_ID":"2026-098N","EPOCH":"2026-07-05T20:05:47.170464","CLASSIFICATION_TYPE":"U","MEAN_MOTION":15.3754197,"ECCENTRICITY":0.00016053,"INCLINATION":51.8755,"RA_OF_ASC_NODE":337.0176,"ARG_OF_PERICENTER":299.5086,"MEAN_ANOMALY":60.5741,"EPHEMERIS_TYPE":0,"NORAD_CAT_ID":68931,"ELEMENT_SET_NO":999,"REV_AT_EPOCH":1022,"BSTAR":0.0011440349,"MEAN_MOTION_DOT":0.00042649,"MEAN_MOTION_DDOT":0},{"OBJECT_NAME":"KUIPER-00420","OBJECT_ID":"2026-098P","EPOCH":"2026-07-05T19:35:10.091328","CLASSIFICATION_TYPE":"U","MEAN_MOTION":15.36498367,"ECCENTRICITY":0.00034006,"INCLINATION":51.8794,"RA_OF_ASC_NODE":337.6255,"ARG_OF_PERICENTER":265.4605,"MEAN_ANOMALY":94.5993,"EPHEMERIS_TYPE":0,"NORAD_CAT_ID":68932,"ELEMENT_SET_NO":999,"REV_AT_EPOCH":1021,"BSTAR":0.00077568328,"MEAN_MOTION_DOT":0.00027774,"MEAN_MOTION_DDOT":0},{"OBJECT_NAME":"KUIPER-00421","OBJECT_ID":"2026-098Q","EPOCH":"2026-07-05T19:13:22.312416","CLASSIFICATION_TYPE":"U","MEAN_MOTION":15.30480974,"ECCENTRICITY":0.00076919,"INCLINATION":51.8796,"RA_OF_ASC_NODE":338.9911,"ARG_OF_PERICENTER":193.0132,"MEAN_ANOMALY":167.0654,"EPHEMERIS_TYPE":0,"NORAD_CAT_ID":68933,"ELEMENT_SET_NO":999,"REV_AT_EPOCH":1019,"BSTAR":-0.0012186011,"MEAN_MOTION_DOT":-0.00036663,"MEAN_MOTION_DDOT":0},{"OBJECT_NAME":"KUIPER-00425","OBJECT_ID":"2026-098R","EPOCH":"2026-07-05T19:42:51.386112","CLASSIFICATION_TYPE":"U","MEAN_MOTION":15.26301423,"ECCENTRICITY":0.00155952,"INCLINATION":51.8789,"RA_OF_ASC_NODE":340.5587,"ARG_OF_PERICENTER":221.1778,"MEAN_ANOMALY":138.8029,"EPHEMERIS_TYPE":0,"NORAD_CAT_ID":68934,"ELEMENT_SET_NO":999,"REV_AT_EPOCH":1017,"BSTAR":0.00067118267,"MEAN_MOTION_DOT":0.0001741,"MEAN_MOTION_DDOT":0},{"OBJECT_NAME":"KUIPER-00430","OBJECT_ID":"2026-098S","EPOCH":"2026-07-06T06:00:04.000320","CLASSIFICATION_TYPE":"U","MEAN_MOTION":15.16654979,"ECCENTRICITY":0.0018867,"INCLINATION":51.8864,"RA_OF_ASC_NODE":338.7366,"ARG_OF_PERICENTER":223.0748,"MEAN_ANOMALY":260.0293,"EPHEMERIS_TYPE":0,"NORAD_CAT_ID":68935,"ELEMENT_SET_NO":999,"REV_AT_EPOCH":565,"BSTAR":-0.080418931,"MEAN_MOTION_DOT":-0.01468811,"MEAN_MOTION_DDOT":0},{"OBJECT_NAME":"KUIPER-00431","OBJECT_ID":"2026-098T","EPOCH":"2026-07-06T06:00:04.000320","CLASSIFICATION_TYPE":"U","MEAN_MOTION":15.01858825,"ECCENTRICITY":0.00145685,"INCLINATION":51.8904,"RA_OF_ASC_NODE":339.8324,"ARG_OF_PERICENTER":210.1139,"MEAN_ANOMALY":57.9758,"EPHEMERIS_TYPE":0,"NORAD_CAT_ID":68936,"ELEMENT_SET_NO":999,"REV_AT_EPOCH":299,"BSTAR":-0.010152922,"MEAN_MOTION_DOT":-0.00132182,"MEAN_MOTION_DDOT":0},{"OBJECT_NAME":"KUIPER-00432","OBJECT_ID":"2026-098U","EPOCH":"2026-07-05T14:53:32.743968","CLASSIFICATION_TYPE":"U","MEAN_MOTION":15.28140951,"ECCENTRICITY":0.00108827,"INCLINATION":51.8778,"RA_OF_ASC_NODE":340.7389,"ARG_OF_PERICENTER":216.9644,"MEAN_ANOMALY":143.059,"EPHEMERIS_TYPE":0,"NORAD_CAT_ID":68937,"ELEMENT_SET_NO":999,"REV_AT_EPOCH":1015,"BSTAR":0.000011944315,"MEAN_MOTION_DOT":-2.6e-7,"MEAN_MOTION_DDOT":0},{"OBJECT_NAME":"KUIPER-00434","OBJECT_ID":"2026-098V","EPOCH":"2026-07-06T06:00:04.000320","CLASSIFICATION_TYPE":"U","MEAN_MOTION":15.22606001,"ECCENTRICITY":0.00047195,"INCLINATION":51.8787,"RA_OF_ASC_NODE":336.8552,"ARG_OF_PERICENTER":193.18,"MEAN_ANOMALY":125.7464,"EPHEMERIS_TYPE":0,"NORAD_CAT_ID":68938,"ELEMENT_SET_NO":999,"REV_AT_EPOCH":588,"BSTAR":-0.088377443,"MEAN_MOTION_DOT":-0.01892634,"MEAN_MOTION_DDOT":0},{"OBJECT_NAME":"KUIPER-00436","OBJECT_ID":"2026-098W","EPOCH":"2026-07-06T06:00:04.000320","CLASSIFICATION_TYPE":"U","MEAN_MOTION":15.23219405,"ECCENTRICITY":0.00084079,"INCLINATION":51.8782,"RA_OF_ASC_NODE":337.3284,"ARG_OF_PERICENTER":231.337,"MEAN_ANOMALY":207.1303,"EPHEMERIS_TYPE":0,"NORAD_CAT_ID":68939,"ELEMENT_SET_NO":999,"REV_AT_EPOCH":368,"BSTAR":-0.05045473,"MEAN_MOTION_DOT":-0.01107059,"MEAN_MOTION_DDOT":0}]}
