[
  {
    "name": "KUIPER-00408",
    "noradId": "68924",
    "line1": "1 68924U 26098F   26186.94783927  .00015977  00000+0  61019-3 0  9994",
    "line2": "2 68924  51.8793 339.9224 0012553 224.7296 135.2675 15.26717345 10195"
  },
  {
    "name": "KUIPER-00409",
    "noradId": "68925",
    "line1": "1 68925U 26098G   26187.25004630 -.01841855  00000+0 -90569-1 0  9992",
    "line2": "2 68925  51.8823 336.9420 0005946 238.9481 358.9100 15.20759242  5575"
  },
  {
    "name": "KUIPER-00410",
    "noradId": "68926",
    "line1": "1 68926U 26098H   26187.20539499  .00011656  00000+0  45007-3 0  9998",
    "line2": "2 68926  51.8784 338.6374 0013454 222.1807 137.8141 15.26628891 10238"
  },
  {
    "name": "KUIPER-00412",
    "noradId": "68927",
    "line1": "1 68927U 26098J   26186.91023530  .00041656  00000+0  11188-2 0  9995",
    "line2": "2 68927  51.8796 336.7708 0003694 278.4385  81.6183 15.37508919 10234"
  },
  {
    "name": "KUIPER-00413",
    "noradId": "68928",
    "line1": "1 68928U 26098K   26186.82817598  .00016169  00000+0  74657-3 0  9993",
    "line2": "2 68928  51.8800 341.2939 0022890 229.8840 130.0133 15.20121373 10166"
  },
  {
    "name": "KUIPER-00414",
    "noradId": "68929",
    "line1": "1 68929U 26098L   26186.82897675  .00002571  00000+0  36607-3 0  9993",
    "line2": "2 68929  51.8978 348.3268 0001271 220.7264 139.3604 14.79938792 10064"
  },
  {
    "name": "KUIPER-00415",
    "noradId": "68930",
    "line1": "1 68930U 26098M   26186.82874325  .00021580  00000+0  73398-3 0  9991",
    "line2": "2 68930  51.8810 339.1779 0009315 211.8871 148.1550 15.30343427 10193"
  },
  {
    "name": "KUIPER-00416",
    "noradId": "68931",
    "line1": "1 68931U 26098N   26186.83735151  .00042649  00000+0  11440-2 0  9994",
    "line2": "2 68931  51.8755 337.0176 0001605 299.5086  60.5741 15.37541970 10228"
  },
  {
    "name": "KUIPER-00420",
    "noradId": "68932",
    "line1": "1 68932U 26098P   26186.81608902  .00027774  00000+0  77568-3 0  9992",
    "line2": "2 68932  51.8794 337.6255 0003400 265.4605  94.5993 15.36498367 10215"
  },
  {
    "name": "KUIPER-00421",
    "noradId": "68933",
    "line1": "1 68933U 26098Q   26186.80095269 -.00036663  00000+0 -12186-2 0  9991",
    "line2": "2 68933  51.8796 338.9911 0007691 193.0132 167.0654 15.30480974 10194"
  },
  {
    "name": "KUIPER-00425",
    "noradId": "68934",
    "line1": "1 68934U 26098R   26186.82142808  .00017410  00000+0  67118-3 0  9999",
    "line2": "2 68934  51.8789 340.5587 0015595 221.1778 138.8029 15.26301423 10172"
  },
  {
    "name": "KUIPER-00430",
    "noradId": "68935",
    "line1": "1 68935U 26098S   26187.25004630 -.01468811  00000+0 -80419-1 0  9993",
    "line2": "2 68935  51.8864 338.7366 0018867 223.0748 260.0293 15.16654979  5658"
  },
  {
    "name": "KUIPER-00431",
    "noradId": "68936",
    "line1": "1 68936U 26098T   26187.25004630 -.00132182  00000+0 -10153-1 0  9990",
    "line2": "2 68936  51.8904 339.8324 0014568 210.1139  57.9758 15.01858825  2998"
  },
  {
    "name": "KUIPER-00432",
    "noradId": "68937",
    "line1": "1 68937U 26098U   26186.62051787 -.00000026  00000+0  11944-4 0  9998",
    "line2": "2 68937  51.8778 340.7389 0010882 216.9644 143.0590 15.28140951 10151"
  },
  {
    "name": "KUIPER-00434",
    "noradId": "68938",
    "line1": "1 68938U 26098V   26187.25004630 -.01892634  00000+0 -88377-1 0  9991",
    "line2": "2 68938  51.8787 336.8552 0004719 193.1800 125.7464 15.22606001  5880"
  },
  {
    "name": "KUIPER-00436",
    "noradId": "68939",
    "line1": "1 68939U 26098W   26187.25004630 -.01107059  00000+0 -50455-1 0  9998",
    "line2": "2 68939  51.8782 337.3284 0008407 231.3370 207.1303 15.23219405  3681"
  }
]